{"type": "FeatureCollection", "features": [ {"type": "Feature", "properties": {"norad_id": 31384, "name": "FENGYUN 1C DEB", "group": "fengyun-1c-debris", "lat": 48.17146152272137, "lon": 134.06784058663655, "alt_km": 786.9585141821508, "timestamp": "2025-12-03T13:52:09.843977+00:00", "meta": {"OBJECT_NAME": "FENGYUN 1C DEB", "OBJECT_ID": "1999-025BSQ", "EPOCH": "2025-11-30T21:25:39.153792", "MEAN_MOTION": 13.85935935, "ECCENTRICITY": 0.04406256, "INCLINATION": 98.4563, "RA_OF_ASC_NODE": 302.0658, "ARG_OF_PERICENTER": 74.1899, "MEAN_ANOMALY": 342.7882, "EPHEMERIS_TYPE": 0, "CLASSIFICATION_TYPE": "U", "NORAD_CAT_ID": 31384, "ELEMENT_SET_NO": 999, "REV_AT_EPOCH": 92860, "BSTAR": 0.0021210825, "MEAN_MOTION_DOT": 5.211e-05, "MEAN_MOTION_DDOT": 0}, "tle": {"line1": "1 31384U 99025BSQ 25334.89281428  .00005211  00000+0  21211-2 0  9990", "line2": "2 31384  98.4563 302.0658 0440625  74.1899 342.7882 13.85935935928609"}}, "geometry": {"type": "Point", "coordinates": [134.06784058663655, 48.17146152272137]}}, {"type": "Feature", "properties": {"norad_id": 31385, "name": "FENGYUN 1C DEB", "group": "fengyun-1c-debris", "lat": 7.756766747997652, "lon": -111.51897464751895, "alt_km": 744.9593134395373, "timestamp": "2025-12-03T13:52:09.843987+00:00", "meta": {"OBJECT_NAME": "FENGYUN 1C DEB", "OBJECT_ID": "1999-025BSR", "EPOCH": "2025-12-01T00:22:37.155648", "MEAN_MOTION": 14.43974622, "ECCENTRICITY": 0.01349077, "INCLINATION": 98.9546, "RA_OF_ASC_NODE": 64.5546, "ARG_OF_PERICENTER": 90.2451, "MEAN_ANOMALY": 88.8217, "EPHEMERIS_TYPE": 0, "CLASSIFICATION_TYPE": "U", "NORAD_CAT_ID": 31385, "ELEMENT_SET_NO": 999, "REV_AT_EPOCH": 98445, "BSTAR": 0.00018371815, "MEAN_MOTION_DOT": 6.48e-06, "MEAN_MOTION_DDOT": 0}, "tle": {"line1": "1 31385U 99025BSR 25335.01570782  .00000648  00000+0  18372-3 0  9994", "line2": "2 31385  98.9546  64.5546 0134907  90.2451  88.8217 14.43974622984454"}}, "geometry": {"type": "Point", "coordinates": [-111.51897464751895, 7.756766747997652]}}, {"type": "Feature", "properties": {"norad_id": 31386, "name": "FENGYUN 1C DEB", "group": "fengyun-1c-debris", "lat": -23.726827256980876, "lon": -2.8853736490321813, "alt_km": 818.1750223385616, "timestamp": "2025-12-03T13:52:09.843997+00:00", "meta": {"OBJECT_NAME": "FENGYUN 1C DEB", "OBJECT_ID": "1999-025BSS", "EPOCH": "2025-11-30T23:36:27.682272", "MEAN_MOTION": 13.85933209, "ECCENTRICITY": 0.01976819, "INCLINATION": 98.4408, "RA_OF_ASC_NODE": 351.0324, "ARG_OF_PERICENTER": 316.7324, "MEAN_ANOMALY": 41.8452, "EPHEMERIS_TYPE": 0, "CLASSIFICATION_TYPE": "U", "NORAD_CAT_ID": 31386, "ELEMENT_SET_NO": 999, "REV_AT_EPOCH": 93699, "BSTAR": 0.0021212341, "MEAN_MOTION_DOT": 2.802e-05, "MEAN_MOTION_DDOT": 0}, "tle": {"line1": "1 31386U 99025BSS 25334.98365373  .00002802  00000+0  21212-2 0  9998", "line2": "2 31386  98.4408 351.0324 0197681 316.7324  41.8452 13.85933209936995"}}, "geometry": {"type": "Point", "coordinates": [-2.8853736490321813, -23.726827256980876]}}, {"type": "Feature", "properties": {"norad_id": 31387, "name": "FENGYUN 1C DEB", "group": "fengyun-1c-debris", "lat": 36.308719857186006, "lon": 42.615199823806414, "alt_km": 739.4274710987766, "timestamp": "2025-12-03T13:52:09.844008+00:00", "meta": {"OBJECT_NAME": "FENGYUN 1C DEB", "OBJECT_ID": "1999-025BST", "EPOCH": "2025-12-03T02:59:15.217152", "MEAN_MOTION": 14.13552609, "ECCENTRICITY": 0.02413307, "INCLINATION": 99.1686, "RA_OF_ASC_NODE": 215.3345, "ARG_OF_PERICENTER": 198.339, "MEAN_ANOMALY": 160.8967, "EPHEMERIS_TYPE": 0, "CLASSIFICATION_TYPE": "U", "NORAD_CAT_ID": 31387, "ELEMENT_SET_NO": 999, "REV_AT_EPOCH": 96161, "BSTAR": 0.00030048359, "MEAN_MOTION_DOT": 6.97e-06, "MEAN_MOTION_DDOT": 0}, "tle": {"line1": "1 31387U 99025BST 25337.12448168  .00000697  00000+0  30048-3 0  9990", "line2": "2 31387  99.1686 215.3345 0241330 198.3390 160.8967 14.13552609961618"}}, "geometry": {"type": "Point", "coordinates": [42.615199823806414, 36.308719857186006]}}, {"type": "Feature", "properties": {"norad_id": 31388, "name": "FENGYUN 1C DEB", "group": "fengyun-1c-debris", "lat": -27.800522079595037, "lon": 141.08892682534335, "alt_km": 842.2958961260756, "timestamp": "2025-12-03T13:52:09.844018+00:00", "meta": {"OBJECT_NAME": "FENGYUN 1C DEB", "OBJECT_ID": "1999-025BSU", "EPOCH": "2025-12-03T06:07:53.130720", "MEAN_MOTION": 14.07419415, "ECCENTRICITY": 0.00461659, "INCLINATION": 98.8042, "RA_OF_ASC_NODE": 325.4619, "ARG_OF_PERICENTER": 228.0098, "MEAN_ANOMALY": 147.5361, "EPHEMERIS_TYPE": 0, "CLASSIFICATION_TYPE": "U", "NORAD_CAT_ID": 31388, "ELEMENT_SET_NO": 999, "REV_AT_EPOCH": 96308, "BSTAR": 0.00030121128, "MEAN_MOTION_DOT": 4.68e-06, "MEAN_MOTION_DDOT": 0}, "tle": {"line1": "1 31388U 99025BSU 25337.25547605  .00000468  00000+0  30121-3 0  9999", "line2": "2 31388  98.8042 325.4619 0046165 228.0098 147.5361 14.07419415963086"}}, "geometry": {"type": "Point", "coordinates": [141.08892682534335, -27.800522079595037]}}, {"type": "Feature", "properties": {"norad_id": 31389, "name": "FENGYUN 1C DEB", "group": "fengyun-1c-debris", "lat": -1.2665027143497203, "lon": -38.06716434354116, "alt_km": 677.6936305192221, "timestamp": "2025-12-03T13:52:09.844028+00:00", "meta": {"OBJECT_NAME": "FENGYUN 1C DEB", "OBJECT_ID": "1999-025BSV", "EPOCH": "2025-12-03T07:01:08.180256", "MEAN_MOTION": 14.60241416, "ECCENTRICITY": 0.00305207, "INCLINATION": 99.0424, "RA_OF_ASC_NODE": 141.8234, "ARG_OF_PERICENTER": 216.7304, "MEAN_ANOMALY": 264.9903, "EPHEMERIS_TYPE": 0, "CLASSIFICATION_TYPE": "U", "NORAD_CAT_ID": 31389, "ELEMENT_SET_NO": 999, "REV_AT_EPOCH": 96359, "BSTAR": 0.0069361936, "MEAN_MOTION_DOT": 0.00033788, "MEAN_MOTION_DDOT": 0}, "tle": {"line1": "1 31389U 99025BSV 25337.29245579  .00033788  00000+0  69362-2 0  9998", "line2": "2 31389  99.0424 141.8234 0030520 216.7304 264.9903 14.60241416963594"}}, "geometry": {"type": "Point", "coordinates": [-38.06716434354116, -1.2665027143497203]}}, {"type": "Feature", "properties": {"norad_id": 31410, "name": "FENGYUN 1C DEB", "group": "fengyun-1c-debris", "lat": 78.59907617845428, "lon": 88.28019987796026, "alt_km": 784.3732722622144, "timestamp": "2025-12-03T13:52:09.844039+00:00", "meta": {"OBJECT_NAME": "FENGYUN 1C DEB", "OBJECT_ID": "1999-025BSW", "EPOCH": "2025-12-01T10:16:43.576896", "MEAN_MOTION": 14.44660711, "ECCENTRICITY": 0.01107684, "INCLINATION": 98.8365, "RA_OF_ASC_NODE": 136.529, "ARG_OF_PERICENTER": 320.6498, "MEAN_ANOMALY": 107.8693, "EPHEMERIS_TYPE": 0, "CLASSIFICATION_TYPE": "U", "NORAD_CAT_ID": 31410, "ELEMENT_SET_NO": 999, "REV_AT_EPOCH": 97588, "BSTAR": 0.0008135917, "MEAN_MOTION_DOT": 2.987e-05, "MEAN_MOTION_DDOT": 0}, "tle": {"line1": "1 31410U 99025BSW 25335.42828214  .00002987  00000+0  81359-3 0  9997", "line2": "2 31410  98.8365 136.5290 0110768 320.6498 107.8693 14.44660711975886"}}, "geometry": {"type": "Point", "coordinates": [88.28019987796026, 78.59907617845428]}}, {"type": "Feature", "properties": {"norad_id": 31411, "name": "FENGYUN 1C DEB", "group": "fengyun-1c-debris", "lat": 30.394441255044153, "lon": 33.78811120673556, "alt_km": 819.6724484768974, "timestamp": "2025-12-03T13:52:09.844049+00:00", "meta": {"OBJECT_NAME": "FENGYUN 1C DEB", "OBJECT_ID": "1999-025BSX", "EPOCH": "2025-11-30T22:39:36.746784", "MEAN_MOTION": 14.27939741, "ECCENTRICITY": 0.0100445, "INCLINATION": 98.6702, "RA_OF_ASC_NODE": 36.3088, "ARG_OF_PERICENTER": 289.6647, "MEAN_ANOMALY": 248.9502, "EPHEMERIS_TYPE": 0, "CLASSIFICATION_TYPE": "U", "NORAD_CAT_ID": 31411, "ELEMENT_SET_NO": 999, "REV_AT_EPOCH": 94311, "BSTAR": 0.00048982088, "MEAN_MOTION_DOT": 1.236e-05, "MEAN_MOTION_DDOT": 0}, "tle": {"line1": "1 31411U 99025BSX 25334.94417531  .00001236  00000+0  48982-3 0  9991", "line2": "2 31411  98.6702  36.3088 0100445 289.6647 248.9502 14.27939741943113"}}, "geometry": {"type": "Point", "coordinates": [33.78811120673556, 30.394441255044153]}}, {"type": "Feature", "properties": {"norad_id": 31412, "name": "FENGYUN 1C DEB", "group": "fengyun-1c-debris", "lat": -66.87102675042276, "lon": 81.31264262851728, "alt_km": 890.5309870526908, "timestamp": "2025-12-03T13:52:09.844073+00:00", "meta": {"OBJECT_NAME": "FENGYUN 1C DEB", "OBJECT_ID": "1999-025BSY", "EPOCH": "2025-11-28T06:38:13.979616", "MEAN_MOTION": 14.09684254, "ECCENTRICITY": 0.00844356, "INCLINATION": 98.5498, "RA_OF_ASC_NODE": 276.8981, "ARG_OF_PERICENTER": 16.021, "MEAN_ANOMALY": 344.3602, "EPHEMERIS_TYPE": 0, "CLASSIFICATION_TYPE": "U", "NORAD_CAT_ID": 31412, "ELEMENT_SET_NO": 999, "REV_AT_EPOCH": 60788, "BSTAR": 0.0021882226, "MEAN_MOTION_DOT": 3.927e-05, "MEAN_MOTION_DDOT": 0}, "tle": {"line1": "1 31412U 99025BSY 25332.27655069  .00003927  00000+0  21882-2 0  9994", "line2": "2 31412  98.5498 276.8981 0084435  16.0210 344.3602 14.09684254607885"}}, "geometry": {"type": "Point", "coordinates": [81.31264262851728, -66.87102675042276]}}, {"type": "Feature", "properties": {"norad_id": 31415, "name": "FENGYUN 1C DEB", "group": "fengyun-1c-debris", "lat": 40.4327836510777, "lon": 116.96414401786419, "alt_km": 750.9677630259812, "timestamp": "2025-12-03T13:52:09.844084+00:00", "meta": {"OBJECT_NAME": "FENGYUN 1C DEB", "OBJECT_ID": "1999-025BTB", "EPOCH": "2025-11-30T02:58:22.044864", "MEAN_MOTION": 14.30472505, "ECCENTRICITY": 0.00637436, "INCLINATION": 99.637, "RA_OF_ASC_NODE": 284.8171, "ARG_OF_PERICENTER": 110.0761, "MEAN_ANOMALY": 250.7294, "EPHEMERIS_TYPE": 0, "CLASSIFICATION_TYPE": "U", "NORAD_CAT_ID": 31415, "ELEMENT_SET_NO": 999, "REV_AT_EPOCH": 62650, "BSTAR": 0.0013587885, "MEAN_MOTION_DOT": 3.567e-05, "MEAN_MOTION_DDOT": 0}, "tle": {"line1": "1 31415U 99025BTB 25334.12386626  .00003567  00000+0  13588-2 0  9997", "line2": "2 31415  99.6370 284.8171 0063743 110.0761 250.7294 14.30472505626509"}}, "geometry": {"type": "Point", "coordinates": [116.96414401786419, 40.4327836510777]}}]}